357P/Hill,e,6.3121,44.5629,1.5212,4.454587,0.1048318,0.43595939,279.8307,09/25.0/2025,2000,g 15.5,4.0
# From MPEC 2024-EF7
358P/PANSTARRS,e,11.0667,85.6659,299.3118,3.145472,0.1766751,0.23945481,121.1272,09/25.0/2025,2000,g 18.0,4.0
# From MPC110086
359P/LONEOS,e,10.2618,149.7392,200.2747,4.642764,0.0985233,0.32302610,291.1863,09/25.0/2025,2000,g 13.5,4.0
# From MPEC 2025-A40
360P/WISE,e,24.1066,2.1147,354.3718,3.699975,0.1384860,0.49955174,49.3172,09/25.0/2025,2000,g 19.5,6.0
# From MPEC 2023-CD7
361P/Spacewatch,e,13.8965,203.2198,219.1532,4.932760,0.0899641,0.43948706,237.1235,09/25.0/2025,2000,g 12.0,4.0
# From MPC184420
363P/Lemmon,e,5.3938,146.7549,340.7762,3.575191,0.1457992,0.51860018,46.0370,09/25.0/2025,2000,g 17.5,4.0
# From MPEC 2024-M41
364P/PANSTARRS,e,11.8516,45.7356,212.9158,2.902627,0.1993045,0.71657166,172.8077,09/25.0/2025,2000,g 17.0,2.0
# From MPC111775
365P/PANSTARRS,e,9.8497,86.6545,67.4146,3.156159,0.1757785,0.58174600,125.9297,09/25.0/2025,2000,g 17.0,4.0
# From MPC114610
366P/Spacewatch,e,8.8565,70.7224,152.9853,3.500345,0.1505004,0.34867373,35.6887,09/25.0/2025,2000,g 15.0,4.0
# From MPC112395
367P/Catalina,e,8.4589,58.6593,172.6692,3.511602,0.1497774,0.28015539,38.4212,09/25.0/2025,2000,g 17.5,2.0
# From MPC114610
368P/NEAT,e,15.4823,257.8576,118.9852,5.535829,0.0756711,0.62543439,194.2612,09/25.0/2025,2000,g 14.0,4.0
# From MPC114610
369P/Hill,e,10.3185,47.2787,13.2556,4.378201,0.1075872,0.55587055,272.3134,09/25.0/2025,2000,g 15.0,4.0
# From MPEC 2021-F20
370P/NEAT,e,19.4138,55.0881,356.7954,6.440996,0.0602941,0.61500464,160.4585,09/25.0/2025,2000,g 13.0,4.0
# From MPC114610
371P/LINEAR-Skiff,e,17.3829,67.2835,308.5657,4.180458,0.1153103,0.47649316,293.3462,09/25.0/2025,2000,g 16.0,4.0
# From MPEC 2020-K19
372P/McNaught,e,9.5029,27.5468,325.9299,4.513361,0.1027907,0.15109940,260.0727,09/25.0/2025,2000,g 13.5,4.0
# From MPEC 2021-F20
373P/Rinner,e,13.7711,231.9274,221.1608,3.796481,0.1332392,0.39383582,314.0345,09/25.0/2025,2000,g 14.5,4.0
# From MPC114610
374P/Larson,e,10.7594,7.8535,51.6091,4.971360,0.0889183,0.46354546,217.4101,09/25.0/2025,2000,g 14.0,4.0
# From MPEC 2021-F20
375P/Hill,e,17.3777,359.8140,119.4768,5.545124,0.0754809,0.66035575,186.1881,09/25.0/2025,2000,g 16.0,4.0
# From MPEC 2024-RQ6
376P/LONEOS,e,1.1662,312.8557,285.3158,5.754583,0.0713975,0.51380299,157.3905,09/25.0/2025,2000,g 12.5,4.0
# From MPEC 2022-N37
377P/Scotti,e,9.0370,225.8857,354.9274,6.694231,0.0569053,0.25161811,108.3014,09/25.0/2025,2000,g  9.5,4.0
# From MPEC 2025-A40
378P/McNaught,e,19.1591,93.7918,193.2775,6.286353,0.0625325,0.46303308,113.5486,09/25.0/2025,2000,g 12.0,4.0
# From MPC115889
379P/Spacewatch,e,12.4370,30.4439,184.7194,3.482810,0.1516385,0.35016896,337.1230,09/25.0/2025,2000,g 15.0,4.0
# From MPEC 2023-C45
380P/PANSTARRS,e,8.0381,127.6626,87.5457,4.448711,0.1050395,0.33322127,249.9188,09/25.0/2025,2000,g 12.5,4.0
# From MPEC 2021-J28
381P/LINEAR-Spacewatch,e,28.3295,173.3286,173.8426,7.145308,0.0516027,0.68035716,113.1362,09/25.0/2025,2000,g 17.5,2.0
# From MPC182891
382P/Larson,e,8.2890,169.7087,162.6485,5.885344,0.0690313,0.26357921,98.7857,09/25.0/2025,2000,g  8.0,4.0
# From MPEC 2022-OB6
383P/Christensen,e,12.3158,207.8539,133.7156,3.549267,0.1473995,0.59843418,318.6404,09/25.0/2025,2000,g 18.0,4.0
# From MPC182891
384P/Kowalski,e,7.2841,354.1876,37.6979,2.897200,0.1998649,0.61622221,74.1294,09/25.0/2025,2000,g 19.5,4.0
# From MPEC 2021-F20
385P/Hill,e,16.8213,357.0238,44.4789,4.289165,0.1109545,0.40176044,244.0478,09/25.0/2025,2000,g 13.0,4.0
# From MPEC 2021-L04
386P/PANSTARRS,e,15.2482,134.9168,353.1168,4.048591,0.1209896,0.41761796,225.1313,09/25.0/2025,2000,g 14.5,4.0
# From MPEC 2021-J28
387P/Boattini,e,8.9377,259.2391,162.8578,4.797537,0.0937943,0.73691301,207.0764,09/25.0/2025,2000,g 15.0,4.0
# From MPEC 2021-S45
388P/Gibbs,e,23.8737,36.9992,42.3885,5.240845,0.0821490,0.61934270,184.9891,09/25.0/2025,2000,g 13.0,4.0
# From MPEC 2022-OB6
389P/Siding Spring,e,160.0773,218.8391,249.3019,5.629314,0.0737940,0.70587611,154.5688,09/25.0/2025,2000,g 16.0,4.0
# From MPEC 2024-EF7
390P/Gibbs,e,18.5176,152.1882,232.5775,5.818571,0.0702230,0.70647707,141.3518,09/25.0/2025,2000,g 12.0,4.0
# From MPEC 2021-F20
391P/Kowalski,e,21.2564,124.7697,186.8452,4.692441,0.0969629,0.11831314,267.0510,09/25.0/2025,2000,g  8.0,4.0
# From MPEC 2021-J28
392P/LINEAR,e,4.9275,24.7847,71.9930,6.142927,0.0647353,0.68395066,129.5188,09/25.0/2025,2000,g 14.5,4.0
# From MPC182892
393P/Spacewatch-Hill,e,16.7818,36.4035,329.1821,4.801382,0.0936817,0.11889315,202.1113,09/25.0/2025,2000,g 11.0,4.0
# From MPEC 2020-KB7
394P/PANSTARRS,e,8.5278,98.0946,54.4788,4.325760,0.1095495,0.36853642,232.7028,09/25.0/2025,2000,g 16.0,2.4
# From MPC182892
395P/Catalina-NEAT,e,3.5676,220.9457,100.7708,7.203617,0.0509775,0.41079101,66.9356,09/25.0/2025,2000,g 10.0,4.0
# From MPEC 2020-KB7
396P/,e,5.4435,136.6038,8.3136,6.798369,0.0556028,0.41717033,123.3423,09/25.0/2025,2000,g 12.0,4.0
# From MPEC 2022-OB6
397P/Lemmon,e,10.9186,8.2018,14.5925,3.832419,0.1313695,0.40447015,252.6320,09/25.0/2025,2000,g 12.0,4.0
# From MPEC 2025-R69
398P/Boattini,e,11.0282,127.4065,320.2916,3.123997,0.1785000,0.58378331,308.9601,09/25.0/2025,2000,g 15.5,4.0
# From MPEC 2023-XP6
399P/PANSTARRS,e,13.3147,207.1100,214.4647,3.793700,0.1333858,0.44722012,211.4463,09/25.0/2025,2000,g 14.0,4.0
# From MPEC 2024-TD8
400P/PANSTARRS,e,10.9250,176.3385,238.9704,3.561884,0.1466170,0.40954522,247.2335,09/25.0/2025,2000,g 15.5,2.8
# From MPEC 2022-K19
401P/McNaught,e,12.8008,359.9189,309.3304,5.776206,0.0709970,0.57828542,150.7707,09/25.0/2025,2000,g 12.5,4.0
# From MPEC 2024-LE0
402P/LINEAR,e,30.8288,123.0380,327.0319,7.042804,0.0527334,0.43998257,72.7103,09/25.0/2025,2000,g  8.0,4.0
# From MPEC 2021-J28
403P/Catalina,e,12.3327,277.5591,163.9880,5.433264,0.0778239,0.50417156,142.6484,09/25.0/2025,2000,g 12.0,4.0
# From MPC184420
404P/Bressi,e,9.8039,260.0377,168.9007,4.717087,0.0962040,0.12396812,66.8701,09/25.0/2025,2000,g 10.0,4.0
# From MPEC 2021-L04
405P/Lemmon,e,9.3796,112.1945,3.3159,3.603484,0.1440855,0.69026501,249.8359,09/25.0/2025,2000,g 17.5,4.0
# From MPEC 2021-F20
406P/Gibbs,e,1.2096,352.3789,11.5616,3.579733,0.1455218,0.54092302,267.1642,09/25.0/2025,2000,g 17.0,4.0
# From MPEC 2022-YN2
407P/PANSTARRS-Fuls,e,4.8741,80.2450,93.0154,3.495259,0.1508291,0.37560520,314.2281,09/25.0/2025,2000,g 14.0,4.0
# From MPC186638
408P/Novichonok-Gerke,e,19.3498,189.4519,226.7181,4.746410,0.0953139,0.26829755,103.4100,09/25.0/2025,2000,g 11.0,4.0
# From MPEC 2022-ED3
409P/LONEOS-Hill,e,17.1524,143.6395,15.0389,6.032516,0.0665206,0.71035289,113.0920,09/25.0/2025,2000,g 14.0,4.0
# From MPEC 2022-M21
410P/NEAT-LINEAR,e,9.3882,139.9223,313.3078,6.655214,0.0574065,0.51169562,89.1591,09/25.0/2025,2000,g 12.5,4.0
# From MPC184420
411P/Christensen,e,12.3881,77.6500,46.5781,5.811835,0.0703452,0.58189575,119.7970,09/25.0/2025,2000,g 13.5,4.0
# From MPEC 2021-F20
412P/WISE,e,8.9287,0.8364,155.8395,3.112379,0.1795004,0.47909335,315.5564,09/25.0/2025,2000,g 17.0,4.0
# From MPC186638
413P/Larson,e,15.9552,38.9434,186.7071,3.736544,0.1364580,0.41755818,209.3193,09/25.0/2025,2000,g 14.0,4.0
# From MPEC 2025-SH3
414P/STEREO,e,23.4069,257.8162,210.7095,2.792495,0.2112105,0.81229864,359.7224,09/25.0/2025,2000,g 19.0,4.0
# From MPEC 2022-J42
415P/Tenagra,e,31.8130,160.2573,345.8996,4.107724,0.1183865,0.19565039,199.2752,09/25.0/2025,2000,g 12.0,4.0
# From MPC184420
416P/Scotti,e,3.3639,355.7257,134.4684,4.006062,0.1229214,0.45559038,206.6168,09/25.0/2025,2000,g 15.5,4.0
# From MPEC 2021-W31
417P/NEOWISE,e,9.9610,111.8638,126.4450,3.354291,0.1604364,0.55091410,264.1621,09/25.0/2025,2000,g 16.5,4.0
# From MPEC 2022-TA0
418P/LINEAR,e,5.7812,277.6097,307.3260,5.089059,0.0858515,0.66400692,123.5960,09/25.0/2025,2000,g 13.0,4.0
# From MPEC 2023-UR6
419P/PANSTARRS,e,2.7932,40.3944,187.7956,3.536058,0.1482262,0.27301162,212.5622,09/25.0/2025,2000,g 12.5,4.0
# From MPEC 2024-L77
420P/Hill,e,14.5116,173.4445,156.4005,5.476591,0.0769022,0.49502093,94.3266,09/25.0/2025,2000,g 11.5,4.0
# From MPEC 2021-W31
421P/McNaught,e,10.0753,55.3240,259.8483,5.074318,0.0862259,0.67436491,147.0923,09/25.0/2025,2000,g 14.0,4.0
# From MPEC 2024-N80
422P/Christensen,e,39.5800,36.0098,304.7471,6.273038,0.0627317,0.50553565,84.9153,09/25.0/2025,2000,g 11.0,4.0
# From MPEC 2023-FK0
423P/Lemmon,e,8.3416,33.3014,81.0212,6.183504,0.0640991,0.12281452,93.4708,09/25.0/2025,2000,g  8.0,4.0
# From MPEC 2022-CN4
424P/LaSagra,e,8.6809,51.2182,312.5513,4.421355,0.1060159,0.69022358,151.1099,09/25.0/2025,2000,g 17.0,4.0
# From MPEC 2024-C04
425P/Kowalski,e,16.4113,210.0894,201.0086,6.352869,0.0615530,0.54358800,90.1831,09/25.0/2025,2000,g 12.0,4.0
# From MPEC 2024-N80
426P/PANSTARRS,e,17.7840,280.3956,118.3909,3.185929,0.1733205,0.16096972,129.2536,09/25.0/2025,2000,g 13.5,4.0
# From MPEC 2023-J29
428P/Gibbs,e,8.5025,299.3073,36.8888,3.488853,0.1512447,0.51812716,241.4271,09/25.0/2025,2000,g 15.0,4.0
# From MPEC 2024-EF7
429P/LINEAR-Hill,e,7.5140,322.0053,75.7476,3.556119,0.1469737,0.49072828,200.1647,09/25.0/2025,2000,g 15.5,4.0
# From MPEC 2022-L66
430P/Scotti,e,4.4758,54.6418,94.4650,3.102954,0.1803188,0.50038328,251.0096,09/25.0/2025,2000,g 16.5,4.0
# From MPEC 2025-A40
431P/Scotti,e,22.3774,202.8347,200.0094,3.477228,0.1520037,0.47724951,200.5720,09/25.0/2025,2000,g 14.0,4.0
# From MPEC 2021-U31
432P/PANSTARRS,e,10.0675,239.1310,105.2543,3.038562,0.1860809,0.24077414,276.9307,09/25.0/2025,2000,g 17.0,4.0
# From MPEC 2024-D33
434P/Tenagra,e,6.3365,288.9098,128.4667,4.136413,0.1171570,0.27419923,167.4059,09/25.0/2025,2000,g 13.0,4.0
# From MPEC 2021-W31
435P/PANSTARRS,e,18.8747,98.5234,244.1965,3.021862,0.1876256,0.31750132,285.5787,09/25.0/2025,2000,g 17.0,4.0
# From MPEC 2022-X67
436P/Garradd,e,20.1993,87.1558,282.7686,5.937041,0.0681317,0.66891503,94.5285,09/25.0/2025,2000,g 14.5,4.0
# From MPEC 2023-B57
